{"spkid": "50466092", "covariance": {"data": [["6.138617229706931E-16", "-1.548028571631585E-15", "5.499906634953357E-13", "1.244238366973393E-14", "3.127175053402727E-13", "-3.790280345504254E-14"], ["-1.548028571631585E-15", "3.939866335649545E-15", "-1.22018667055765E-12", "-2.517245484667613E-14", "-7.158672229010335E-13", "1.089009835260744E-13"], ["5.499906634953357E-13", "-1.22018667055765E-12", "1.311812351704797E-9", "4.844640488614246E-11", "6.512853634966999E-10", "2.179755111371327E-11"], ["1.244238366973393E-14", "-2.517245484667613E-14", "4.844640488614246E-11", "3.369618977666031E-11", "-4.666762641880487E-12", "-2.019057556037622E-11"], ["3.127175053402727E-13", "-7.158672229010335E-13", "6.512853634966999E-10", "-4.666762641880487E-12", "3.622305514447208E-10", "2.153347665278709E-11"], ["-3.790280345504254E-14", "1.089009835260744E-13", "2.179755111371327E-11", "-2.019057556037622E-11", "2.153347665278709E-11", "7.990604358846412E-11"]], "elements": [{"name": "e", "sigma": 2.4776233026243e-08, "title": "eccentricity", "value": ".6145286350067758", "units": null, "label": "e"}, {"name": "q", "sigma": 6.27683545717868e-08, "title": "perihelion distance", "value": "1.050729970002762", "units": "au", "label": "q"}, {"label": "tp", "name": "tp", "sigma": 3.62189501739738e-05, "title": "time of perihelion passage", "value": "2456737.565306279293", "units": "TDB"}, {"label": "node", "units": "deg", "title": "longitude of the ascending node", "value": "158.5093839660236", "sigma": 5.80484192520867e-06, "name": "om"}, {"units": "deg", "title": "argument of perihelion", "value": "200.7630307136452", "sigma": 1.90323553835231e-05, "name": "w", "label": "peri"}, {"label": "i", "units": "deg", "title": "inclination", "value": "19.56642604096084", "name": "i", "sigma": 8.93901804386053e-06}], "labels": ["e", "q", "tp", "node", "peri", "i"], "epoch": "2456948.5"}, "elements": [{"units": null, "value": ".6203343527821202", "title": "eccentricity", "name": "e", "sigma": "3.8366E-8", "label": "e"}, {"label": "a", "units": "au", "title": "semi-major axis", "value": "2.718109750852781", "sigma": "1.9096E-8", "name": "a"}, {"label": "q", "units": "au", "title": "perihelion distance", "value": "1.031972897766751", "sigma": "1.1026E-7", "name": "q"}, {"sigma": "8.8519E-6", "name": "i", "units": "deg", "value": "19.26366845075989", "title": "inclination; angle with respect to x-y ecliptic plane", "label": "i"}, {"label": "node", "sigma": "5.8998E-6", "name": "om", "units": "deg", "title": "longitude of the ascending node", "value": "157.763513173183"}, {"sigma": "1.8192E-5", "name": "w", "units": "deg", "value": "202.218082115306", "title": "argument of perihelion", "label": "peri"}, {"name": "ma", "sigma": "5.8466E-6", "title": "mean anomaly", "value": "257.7383764065075", "units": "deg", "label": "M"}, {"label": "tp", "name": "tp", "sigma": "2.9572E-5", "value": "2461665.453041052919", "title": "time of perihelion passage", "units": "TDB"}, {"sigma": "1.7249E-5", "name": "per", "units": "d", "title": "sidereal orbital period", "value": "1636.812412097302", "label": "period"}, {"label": "n", "units": "deg/d", "title": "mean motion", "value": ".2199396811383658", "name": "n", "sigma": "2.3178E-9"}, {"sigma": "3.0943E-8", "name": "ad", "units": "au", "title": "aphelion distance", "value": "4.40424660393881", "label": "Q"}], "epoch": "2461200.5"}